{
  "type": "FeatureCollection",
  "features": [
    {
      "type": "Feature",
      "properties": {
        "norad_id": 66884,
        "name": "STARLINK-36057",
        "group": "last-30-days",
        "lat": 2.288379782455475,
        "lon": -165.36489953741855,
        "alt_km": 370.35246769029527,
        "timestamp": "2025-12-24T05:51:18.326943+00:00",
        "meta_object_name": "STARLINK-36057",
        "meta_object_id": "2025-283G",
        "meta_epoch": "2025-12-23T22:00:01.999584",
        "meta_mean_motion": 15.67563978,
        "meta_eccentricity": 0.0001257,
        "meta_inclination": 53.1589,
        "meta_ra_of_asc_node": 17.959,
        "meta_arg_of_pericenter": 84.5386,
        "meta_mean_anomaly": 45.3637,
        "meta_ephemeris_type": 0,
        "meta_classification_type": "U",
        "meta_norad_cat_id": 66884,
        "meta_element_set_no": 999,
        "meta_rev_at_epoch": 422,
        "meta_bstar": -0.019492905,
        "meta_mean_motion_dot": -0.01915949,
        "meta_mean_motion_ddot": 0,
        "tle_line1": "1 66884U 25283G   25357.91668981 -.01915949  00000+0 -19493-1 0  9998",
        "tle_line2": "2 66884  53.1589  17.9590 0001257  84.5386  45.3637 15.67563978  4228"
      },
      "geometry": {
        "type": "Point",
        "coordinates": [
          -165.36489953741855,
          2.288379782455475
        ]
      }
    },
    {
      "type": "Feature",
      "properties": {
        "norad_id": 66885,
        "name": "STARLINK-35954",
        "group": "last-30-days",
        "lat": 3.821046283417486,
        "lon": -166.51452778180226,
        "alt_km": 370.1374017856333,
        "timestamp": "2025-12-24T05:51:18.326953+00:00",
        "meta_object_name": "STARLINK-35954",
        "meta_object_id": "2025-283H",
        "meta_epoch": "2025-12-23T22:00:01.999584",
        "meta_mean_motion": 15.67562291,
        "meta_eccentricity": 0.00013367,
        "meta_inclination": 53.1588,
        "meta_ra_of_asc_node": 17.9628,
        "meta_arg_of_pericenter": 82.6869,
        "meta_mean_anomaly": 45.2985,
        "meta_ephemeris_type": 0,
        "meta_classification_type": "U",
        "meta_norad_cat_id": 66885,
        "meta_element_set_no": 999,
        "meta_rev_at_epoch": 422,
        "meta_bstar": -0.01946271,
        "meta_mean_motion_dot": -0.01913261,
        "meta_mean_motion_ddot": 0,
        "tle_line1": "1 66885U 25283H   25357.91668981 -.01913261  00000+0 -19463-1 0  9991",
        "tle_line2": "2 66885  53.1588  17.9628 0001336  82.6869  45.2985 15.67562291  4225"
      },
      "geometry": {
        "type": "Point",
        "coordinates": [
          -166.51452778180226,
          3.821046283417486
        ]
      }
    },
    {
      "type": "Feature",
      "properties": {
        "norad_id": 66886,
        "name": "STARLINK-35900",
        "group": "last-30-days",
        "lat": 0.7552613447100059,
        "lon": -164.2188151256559,
        "alt_km": 370.46078170247256,
        "timestamp": "2025-12-24T05:51:18.326963+00:00",
        "meta_object_name": "STARLINK-35900",
        "meta_object_id": "2025-283J",
        "meta_epoch": "2025-12-23T22:00:01.999584",
        "meta_mean_motion": 15.67564522,
        "meta_eccentricity": 0.00011984,
        "meta_inclination": 53.1587,
        "meta_ra_of_asc_node": 17.9545,
        "meta_arg_of_pericenter": 94.9702,
        "meta_mean_anomaly": 36.8487,
        "meta_ephemeris_type": 0,
        "meta_classification_type": "U",
        "meta_norad_cat_id": 66886,
        "meta_element_set_no": 999,
        "meta_rev_at_epoch": 422,
        "meta_bstar": -0.01950147,
        "meta_mean_motion_dot": -0.01916691,
        "meta_mean_motion_ddot": 0,
        "tle_line1": "1 66886U 25283J   25357.91668981 -.01916691  00000+0 -19501-1 0  9995",
        "tle_line2": "2 66886  53.1587  17.9545 0001198  94.9702  36.8487 15.67564522  4223"
      },
      "geometry": {
        "type": "Point",
        "coordinates": [
          -164.2188151256559,
          0.7552613447100059
        ]
      }
    },
    {
      "type": "Feature",
      "properties": {
        "norad_id": 66887,
        "name": "STARLINK-35925",
        "group": "last-30-days",
        "lat": -0.7793794356627715,
        "lon": -163.0717989749151,
        "alt_km": 370.8581480281209,
        "timestamp": "2025-12-24T05:51:18.326975+00:00",
        "meta_object_name": "STARLINK-35925",
        "meta_object_id": "2025-283K",
        "meta_epoch": "2025-12-23T22:00:01.999584",
        "meta_mean_motion": 15.67560278,
        "meta_eccentricity": 0.00013849,
        "meta_inclination": 53.159,
        "meta_ra_of_asc_node": 17.9508,
        "meta_arg_of_pericenter": 82.2599,
        "meta_mean_anomaly": 51.477,
        "meta_ephemeris_type": 0,
        "meta_classification_type": "U",
        "meta_norad_cat_id": 66887,
        "meta_element_set_no": 999,
        "meta_rev_at_epoch": 422,
        "meta_bstar": -0.019438762,
        "meta_mean_motion_dot": -0.0191107,
        "meta_mean_motion_ddot": 0,
        "tle_line1": "1 66887U 25283K   25357.91668981 -.01911070  00000+0 -19439-1 0  9992",
        "tle_line2": "2 66887  53.1590  17.9508 0001384  82.2599  51.4770 15.67560278  4220"
      },
      "geometry": {
        "type": "Point",
        "coordinates": [
          -163.0717989749151,
          -0.7793794356627715
        ]
      }
    },
    {
      "type": "Feature",
      "properties": {
        "norad_id": 66888,
        "name": "STARLINK-35919",
        "group": "last-30-days",
        "lat": -2.3121967400780115,
        "lon": -161.9256026254112,
        "alt_km": 371.0845144449504,
        "timestamp": "2025-12-24T05:51:18.326985+00:00",
        "meta_object_name": "STARLINK-35919",
        "meta_object_id": "2025-283L",
        "meta_epoch": "2025-12-23T22:00:01.999584",
        "meta_mean_motion": 15.67562576,
        "meta_eccentricity": 0.0001303,
        "meta_inclination": 53.159,
        "meta_ra_of_asc_node": 17.9466,
        "meta_arg_of_pericenter": 81.5638,
        "meta_mean_anomaly": 54.0886,
        "meta_ephemeris_type": 0,
        "meta_classification_type": "U",
        "meta_norad_cat_id": 66888,
        "meta_element_set_no": 999,
        "meta_rev_at_epoch": 422,
        "meta_bstar": -0.019465062,
        "meta_mean_motion_dot": -0.01913461,
        "meta_mean_motion_ddot": 0,
        "tle_line1": "1 66888U 25283L   25357.91668981 -.01913461  00000+0 -19465-1 0  9998",
        "tle_line2": "2 66888  53.1590  17.9466 0001303  81.5638  54.0886 15.67562576  4221"
      },
      "geometry": {
        "type": "Point",
        "coordinates": [
          -161.9256026254112,
          -2.3121967400780115
        ]
      }
    },
    {
      "type": "Feature",
      "properties": {
        "norad_id": 66889,
        "name": "STARLINK-35852",
        "group": "last-30-days",
        "lat": -3.844950696834187,
        "lon": -160.7763631682749,
        "alt_km": 371.31096770084696,
        "timestamp": "2025-12-24T05:51:18.326997+00:00",
        "meta_object_name": "STARLINK-35852",
        "meta_object_id": "2025-283M",
        "meta_epoch": "2025-12-23T22:00:01.999584",
        "meta_mean_motion": 15.67560965,
        "meta_eccentricity": 0.00013141,
        "meta_inclination": 53.1591,
        "meta_ra_of_asc_node": 17.9423,
        "meta_arg_of_pericenter": 81.5424,
        "meta_mean_anomaly": 56.0288,
        "meta_ephemeris_type": 0,
        "meta_classification_type": "U",
        "meta_norad_cat_id": 66889,
        "meta_element_set_no": 999,
        "meta_rev_at_epoch": 422,
        "meta_bstar": -0.01945875,
        "meta_mean_motion_dot": -0.01912807,
        "meta_mean_motion_ddot": 0,
        "tle_line1": "1 66889U 25283M   25357.91668981 -.01912807  00000+0 -19459-1 0  9995",
        "tle_line2": "2 66889  53.1591  17.9423 0001314  81.5424  56.0288 15.67560965  4229"
      },
      "geometry": {
        "type": "Point",
        "coordinates": [
          -160.7763631682749,
          -3.844950696834187
        ]
      }
    },
    {
      "type": "Feature",
      "properties": {
        "norad_id": 66890,
        "name": "STARLINK-35885",
        "group": "last-30-days",
        "lat": -5.376057396822678,
        "lon": -159.62250801472345,
        "alt_km": 371.43977020344664,
        "timestamp": "2025-12-24T05:51:18.327007+00:00",
        "meta_object_name": "STARLINK-35885",
        "meta_object_id": "2025-283N",
        "meta_epoch": "2025-12-23T22:00:01.999584",
        "meta_mean_motion": 15.67563935,
        "meta_eccentricity": 0.00012709,
        "meta_inclination": 53.1588,
        "meta_ra_of_asc_node": 17.9385,
        "meta_arg_of_pericenter": 87.7006,
        "meta_mean_anomaly": 51.7862,
        "meta_ephemeris_type": 0,
        "meta_classification_type": "U",
        "meta_norad_cat_id": 66890,
        "meta_element_set_no": 999,
        "meta_rev_at_epoch": 422,
        "meta_bstar": -0.019492827,
        "meta_mean_motion_dot": -0.0191595,
        "meta_mean_motion_ddot": 0,
        "tle_line1": "1 66890U 25283N   25357.91668981 -.01915950  00000+0 -19493-1 0  9997",
        "tle_line2": "2 66890  53.1588  17.9385 0001270  87.7006  51.7862 15.67563935  4229"
      },
      "geometry": {
        "type": "Point",
        "coordinates": [
          -159.62250801472345,
          -5.376057396822678
        ]
      }
    }
  ]
}